{"type": "FeatureCollection", "features": [ {"type": "Feature", "properties": {"norad_id": 40534, "name": "GPS BIIF-9  (PRN 26)", "group": "gps-ops", "lat": 3.2860611920429665, "lon": -145.34118686221046, "alt_km": 19946.366567149104, "timestamp": "2025-12-05T14:45:15.557792+00:00", "meta": {"OBJECT_NAME": "GPS BIIF-9  (PRN 26)", "OBJECT_ID": "2015-013A", "EPOCH": "2025-12-04T02:43:21.770688", "MEAN_MOTION": 2.0056293, "ECCENTRICITY": 0.010668, "INCLINATION": 53.1992, "RA_OF_ASC_NODE": 212.2476, "ARG_OF_PERICENTER": 38.2695, "MEAN_ANOMALY": 322.5821, "EPHEMERIS_TYPE": 0, "CLASSIFICATION_TYPE": "U", "NORAD_CAT_ID": 40534, "ELEMENT_SET_NO": 999, "REV_AT_EPOCH": 7791, "BSTAR": 0, "MEAN_MOTION_DOT": 7.5e-07, "MEAN_MOTION_DDOT": 0}, "tle": {"line1": "1 40534U 15013A   25338.11344642  .00000075  00000+0  00000+0 0  9992", "line2": "2 40534  53.1992 212.2476 0106680  38.2695 322.5821  2.00562930 77919"}}, "geometry": {"type": "Point", "coordinates": [-145.34118686221046, 3.2860611920429665]}}, {"type": "Feature", "properties": {"norad_id": 40730, "name": "GPS BIIF-10 (PRN 08)", "group": "gps-ops", "lat": -48.40781279634912, "lon": 149.5157261442737, "alt_km": 20408.09471791967, "timestamp": "2025-12-05T14:45:15.557803+00:00", "meta": {"OBJECT_NAME": "GPS BIIF-10 (PRN 08)", "OBJECT_ID": "2015-033A", "EPOCH": "2025-12-04T06:35:41.435232", "MEAN_MOTION": 2.00565814, "ECCENTRICITY": 0.0110441, "INCLINATION": 54.1382, "RA_OF_ASC_NODE": 275.1212, "ARG_OF_PERICENTER": 26.6009, "MEAN_ANOMALY": 333.963, "EPHEMERIS_TYPE": 0, "CLASSIFICATION_TYPE": "U", "NORAD_CAT_ID": 40730, "ELEMENT_SET_NO": 999, "REV_AT_EPOCH": 7608, "BSTAR": 0, "MEAN_MOTION_DOT": -3.2e-07, "MEAN_MOTION_DDOT": 0}, "tle": {"line1": "1 40730U 15033A   25338.27478513 -.00000032  00000+0  00000+0 0  9998", "line2": "2 40730  54.1382 275.1212 0110441  26.6009 333.9630  2.00565814 76082"}}, "geometry": {"type": "Point", "coordinates": [149.5157261442737, -48.40781279634912]}}, {"type": "Feature", "properties": {"norad_id": 41019, "name": "GPS BIIF-11 (PRN 10)", "group": "gps-ops", "lat": -19.244950595308943, "lon": -128.5157529401214, "alt_km": 19920.654809213655, "timestamp": "2025-12-05T14:45:15.557814+00:00", "meta": {"OBJECT_NAME": "GPS BIIF-11 (PRN 10)", "OBJECT_ID": "2015-062A", "EPOCH": "2025-12-03T20:03:13.853664", "MEAN_MOTION": 2.0056693, "ECCENTRICITY": 0.0110571, "INCLINATION": 56.8259, "RA_OF_ASC_NODE": 38.3468, "ARG_OF_PERICENTER": 229.69, "MEAN_ANOMALY": 129.3913, "EPHEMERIS_TYPE": 0, "CLASSIFICATION_TYPE": "U", "NORAD_CAT_ID": 41019, "ELEMENT_SET_NO": 999, "REV_AT_EPOCH": 7391, "BSTAR": 0, "MEAN_MOTION_DOT": -6.5e-07, "MEAN_MOTION_DDOT": 0}, "tle": {"line1": "1 41019U 15062A   25337.83557701 -.00000065  00000+0  00000+0 0  9995", "line2": "2 41019  56.8259  38.3468 0110571 229.6900 129.3913  2.00566930 73916"}}, "geometry": {"type": "Point", "coordinates": [-128.5157529401214, -19.244950595308943]}}, {"type": "Feature", "properties": {"norad_id": 41328, "name": "GPS BIIF-12 (PRN 32)", "group": "gps-ops", "lat": 29.473507988253445, "lon": -105.80650665266336, "alt_km": 20219.12428581005, "timestamp": "2025-12-05T14:45:15.557825+00:00", "meta": {"OBJECT_NAME": "GPS BIIF-12 (PRN 32)", "OBJECT_ID": "2016-007A", "EPOCH": "2025-12-03T22:01:44.177088", "MEAN_MOTION": 2.00561076, "ECCENTRICITY": 0.0091739, "INCLINATION": 55.4011, "RA_OF_ASC_NODE": 97.2072, "ARG_OF_PERICENTER": 243.359, "MEAN_ANOMALY": 115.6713, "EPHEMERIS_TYPE": 0, "CLASSIFICATION_TYPE": "U", "NORAD_CAT_ID": 41328, "ELEMENT_SET_NO": 999, "REV_AT_EPOCH": 7192, "BSTAR": 0, "MEAN_MOTION_DOT": -7e-08, "MEAN_MOTION_DDOT": 0}, "tle": {"line1": "1 41328U 16007A   25337.91787242 -.00000007  00000+0  00000+0 0  9998", "line2": "2 41328  55.4011  97.2072 0091739 243.3590 115.6713  2.00561076 71928"}}, "geometry": {"type": "Point", "coordinates": [-105.80650665266336, 29.473507988253445]}}, {"type": "Feature", "properties": {"norad_id": 43873, "name": "GPS BIII-1  (PRN 04)", "group": "gps-ops", "lat": 31.22845963367077, "lon": 124.37160653867753, "alt_km": 20269.280455455882, "timestamp": "2025-12-05T14:45:15.557837+00:00", "meta": {"OBJECT_NAME": "GPS BIII-1  (PRN 04)", "OBJECT_ID": "2018-109A", "EPOCH": "2025-12-04T13:52:59.167776", "MEAN_MOTION": 2.00553165, "ECCENTRICITY": 0.0037177, "INCLINATION": 55.5628, "RA_OF_ASC_NODE": 99.8692, "ARG_OF_PERICENTER": 194.6577, "MEAN_ANOMALY": 176.2017, "EPHEMERIS_TYPE": 0, "CLASSIFICATION_TYPE": "U", "NORAD_CAT_ID": 43873, "ELEMENT_SET_NO": 999, "REV_AT_EPOCH": 5117, "BSTAR": 0, "MEAN_MOTION_DOT": -5e-08, "MEAN_MOTION_DDOT": 0}, "tle": {"line1": "1 43873U 18109A   25338.57846259 -.00000005  00000+0  00000+0 0  9995", "line2": "2 43873  55.5628  99.8692 0037177 194.6577 176.2017  2.00553165 51170"}}, "geometry": {"type": "Point", "coordinates": [124.37160653867753, 31.22845963367077]}}, {"type": "Feature", "properties": {"norad_id": 44506, "name": "GPS BIII-2  (PRN 18)", "group": "gps-ops", "lat": -47.72776599283401, "lon": -69.78176662828696, "alt_km": 20207.522670864466, "timestamp": "2025-12-05T14:45:15.557848+00:00", "meta": {"OBJECT_NAME": "GPS BIII-2  (PRN 18)", "OBJECT_ID": "2019-056A", "EPOCH": "2025-12-02T10:49:28.764768", "MEAN_MOTION": 2.00565569, "ECCENTRICITY": 0.00578163, "INCLINATION": 55.7251, "RA_OF_ASC_NODE": 338.9617, "ARG_OF_PERICENTER": 198.402, "MEAN_ANOMALY": 332.9603, "EPHEMERIS_TYPE": 0, "CLASSIFICATION_TYPE": "U", "NORAD_CAT_ID": 44506, "ELEMENT_SET_NO": 999, "REV_AT_EPOCH": 4612, "BSTAR": 0, "MEAN_MOTION_DOT": -6.1e-07, "MEAN_MOTION_DDOT": 0}, "tle": {"line1": "1 44506U 19056A   25336.45102737 -.00000061  00000+0  00000+0 0  9994", "line2": "2 44506  55.7251 338.9617 0057816 198.4020 332.9603  2.00565569 46121"}}, "geometry": {"type": "Point", "coordinates": [-69.78176662828696, -47.72776599283401]}}, {"type": "Feature", "properties": {"norad_id": 45854, "name": "GPS BIII-3  (PRN 23)", "group": "gps-ops", "lat": -46.47688342349814, "lon": -99.4440189656825, "alt_km": 20059.614649093717, "timestamp": "2025-12-05T14:45:15.557859+00:00", "meta": {"OBJECT_NAME": "GPS BIII-3  (PRN 23)", "OBJECT_ID": "2020-041A", "EPOCH": "2025-12-03T06:48:38.769120", "MEAN_MOTION": 2.00561684, "ECCENTRICITY": 0.0060262, "INCLINATION": 56.5402, "RA_OF_ASC_NODE": 36.5545, "ARG_OF_PERICENTER": 203.0015, "MEAN_ANOMALY": 153.8862, "EPHEMERIS_TYPE": 0, "CLASSIFICATION_TYPE": "U", "NORAD_CAT_ID": 45854, "ELEMENT_SET_NO": 999, "REV_AT_EPOCH": 4010, "BSTAR": 0, "MEAN_MOTION_DOT": -6.6e-07, "MEAN_MOTION_DDOT": 0}, "tle": {"line1": "1 45854U 20041A   25337.28378205 -.00000066  00000+0  00000+0 0  9999", "line2": "2 45854  56.5402  36.5545 0060262 203.0015 153.8862  2.00561684 40105"}}, "geometry": {"type": "Point", "coordinates": [-99.4440189656825, -46.47688342349814]}}, {"type": "Feature", "properties": {"norad_id": 46826, "name": "GPS BIII-4  (PRN 14)", "group": "gps-ops", "lat": -24.46087236929775, "lon": 57.92083019215935, "alt_km": 20015.7256802283, "timestamp": "2025-12-05T14:45:15.557876+00:00", "meta": {"OBJECT_NAME": "GPS BIII-4  (PRN 14)", "OBJECT_ID": "2020-078A", "EPOCH": "2025-11-12T03:01:29.190720", "MEAN_MOTION": 2.00567032, "ECCENTRICITY": 0.0063911, "INCLINATION": 54.0223, "RA_OF_ASC_NODE": 219.5836, "ARG_OF_PERICENTER": 203.4986, "MEAN_ANOMALY": 326.7754, "EPHEMERIS_TYPE": 0, "CLASSIFICATION_TYPE": "U", "NORAD_CAT_ID": 46826, "ELEMENT_SET_NO": 999, "REV_AT_EPOCH": 3715, "BSTAR": 0, "MEAN_MOTION_DOT": -3.4e-07, "MEAN_MOTION_DDOT": 0}, "tle": {"line1": "1 46826U 20078A   25316.12603230 -.00000034  00000+0  00000+0 0  9993", "line2": "2 46826  54.0223 219.5836 0063911 203.4986 326.7754  2.00567032 37155"}}, "geometry": {"type": "Point", "coordinates": [57.92083019215935, -24.46087236929775]}}, {"type": "Feature", "properties": {"norad_id": 48859, "name": "GPS BIII-5  (PRN 11)", "group": "gps-ops", "lat": 29.27627809887402, "lon": 3.134882192752712, "alt_km": 20242.28722835299, "timestamp": "2025-12-05T14:45:15.557888+00:00", "meta": {"OBJECT_NAME": "GPS BIII-5  (PRN 11)", "OBJECT_ID": "2021-054A", "EPOCH": "2025-11-30T17:12:22.002912", "MEAN_MOTION": 2.00553932, "ECCENTRICITY": 0.0024653, "INCLINATION": 55.2606, "RA_OF_ASC_NODE": 340.4377, "ARG_OF_PERICENTER": 232.9477, "MEAN_ANOMALY": 227.2059, "EPHEMERIS_TYPE": 0, "CLASSIFICATION_TYPE": "U", "NORAD_CAT_ID": 48859, "ELEMENT_SET_NO": 999, "REV_AT_EPOCH": 3277, "BSTAR": 0, "MEAN_MOTION_DOT": -5.5e-07, "MEAN_MOTION_DDOT": 0}, "tle": {"line1": "1 48859U 21054A   25334.71692133 -.00000055  00000+0  00000+0 0  9994", "line2": "2 48859  55.2606 340.4377 0024653 232.9477 227.2059  2.00553932 32777"}}, "geometry": {"type": "Point", "coordinates": [3.134882192752712, 29.27627809887402]}}, {"type": "Feature", "properties": {"norad_id": 55268, "name": "GPS BIII-6  (PRN 28)", "group": "gps-ops", "lat": 53.546050981098624, "lon": -132.9194435056014, "alt_km": 20174.95006886839, "timestamp": "2025-12-05T14:45:15.557899+00:00", "meta": {"OBJECT_NAME": "GPS BIII-6  (PRN 28)", "OBJECT_ID": "2023-009A", "EPOCH": "2025-12-03T18:12:38.807136", "MEAN_MOTION": 2.00556312, "ECCENTRICITY": 0.00036355, "INCLINATION": 55.1062, "RA_OF_ASC_NODE": 156.1984, "ARG_OF_PERICENTER": 358.5946, "MEAN_ANOMALY": 180.1179, "EPHEMERIS_TYPE": 0, "CLASSIFICATION_TYPE": "U", "NORAD_CAT_ID": 55268, "ELEMENT_SET_NO": 999, "REV_AT_EPOCH": 2132, "BSTAR": 0, "MEAN_MOTION_DOT": 9.9e-07, "MEAN_MOTION_DDOT": 0}, "tle": {"line1": "1 55268U 23009A   25337.75878249  .00000099  00000+0  00000+0 0  9996", "line2": "2 55268  55.1062 156.1984 0003635 358.5946 180.1179  2.00556312 21327"}}, "geometry": {"type": "Point", "coordinates": [-132.9194435056014, 53.546050981098624]}}]}